GEOSCAN 3 (RS92S3)      
1 64893U 25155T   26159.13313279  .00015777  00000+0  46509-3 0  9993
2 64893  97.4534 128.9066 0005358 190.4108 169.7025 15.35092443 79462
INNOSAT 3 (RS92S0)      
1 64894U 25155U   26159.17172201  .00031158  00000+0  70227-3 0  9991
2 64894  97.4485 130.4563 0004852 174.5282 185.6020 15.43193070 79573
KNACKSAT-2              
1 67683U 98067XZ  26158.80293920  .00048726  00000+0  61258-3 0  9996
2 67683  51.6303 341.6515 0010362 174.2130 185.8984 15.59121118 18810
