OBJECT_NAME,OBJECT_ID,EPOCH,MEAN_MOTION,ECCENTRICITY,INCLINATION,RA_OF_ASC_NODE,ARG_OF_PERICENTER,MEAN_ANOMALY,EPHEMERIS_TYPE,CLASSIFICATION_TYPE,NORAD_CAT_ID,ELEMENT_SET_NO,REV_AT_EPOCH,BSTAR,MEAN_MOTION_DOT,MEAN_MOTION_DDOT
GEOSCAN 3 (RS92S3),2025-155T,2026-06-08T03:11:42.673056,15.35092443,.0005358,97.4534,128.9066,190.4108,169.7025,0,U,64893,999,7946,.46509E-3,.15777E-3,0
INNOSAT 3 (RS92S0),2025-155U,2026-06-08T04:07:16.781664,15.43193070,.0004852,97.4485,130.4563,174.5282,185.6020,0,U,64894,999,7957,.70227E-3,.31158E-3,0
KNACKSAT-2,1998-067XZ,2026-06-07T19:16:13.946880,15.59121118,.0010362,51.6303,341.6515,174.2130,185.8984,0,U,67683,999,1881,.61258E-3,.48726E-3,0
